{"epoch":1784799577,"count":18318,"objects":[{"id":"67064","name":"HULIANWANG DIGUI-124","type":"PAYLOAD","l1":"1 67064U 25295F   26203.82506131 -.00000090  00000-0  73384-4 0  9994","l2":"2 67064  49.9986 257.5240 0001142 221.3324 138.7462 13.29329586 30248"},{"id":"67065","name":"HULIANWANG DIGUI-125","type":"PAYLOAD","l1":"1 67065U 25295G   26203.51592150 -.00000090  00000-0  72729-4 0  9999","l2":"2 67065  49.9978 258.5420 0001108 218.3147 141.7647 13.29330211 30204"},{"id":"67066","name":"HULIANWANG DIGUI-126","type":"PAYLOAD","l1":"1 67066U 25295H   26203.88346664 -.00000093  00000-0  67337-4 0  9999","l2":"2 67066  49.9981 257.1548 0001146 216.1908 143.8887 13.29323154 30250"},{"id":"67067","name":"HULIANWANG DIGUI-127","type":"PAYLOAD","l1":"1 67067U 25295J   26203.87502315 -.00000090  00000-0  73258-4 0  9992","l2":"2 67067  49.9999 257.1466 0001141 219.7523 140.3265 13.29331418 30250"},{"id":"67236","name":"HULIANWANG DIGUI-128","type":"PAYLOAD","l1":"1 67236U 25311A   26202.76946894 -.00000111  00000-0  28355-4 0  9992","l2":"2 67236  50.0102 351.5303 0000909  97.0176 263.0800 13.29323850 27949"},{"id":"67237","name":"HULIANWANG DIGUI-129","type":"PAYLOAD","l1":"1 67237U 25311B   26203.83025777 -.00000104  00000-0  44213-4 0  9993","l2":"2 67237  50.0093 347.7801 0000844 101.9690 258.1277 13.29325135 28080"},{"id":"67238","name":"HULIANWANG DIGUI-130","type":"PAYLOAD","l1":"1 67238U 25311C   26203.65490521 -.00000104  00000-0  42856-4 0  9998","l2":"2 67238  50.0076 348.8101 0000922 100.2192 259.8785 13.29323896 28054"},{"id":"67239","name":"HULIANWANG DIGUI-131","type":"PAYLOAD","l1":"1 67239U 25311D   26203.66327218 -.00000116  00000-0  17462-4 0  9990","l2":"2 67239  50.0070 348.8453 0000933 100.7650 259.3327 13.29323593 28056"},{"id":"67240","name":"HULIANWANG DIGUI-132","type":"PAYLOAD","l1":"1 67240U 25311E   26203.78853403 -.00000109  00000-0  33140-4 0  9998","l2":"2 67240  50.0082 348.1978 0000873  99.6244 260.4726 13.29324352 28076"},{"id":"67241","name":"HULIANWANG DIGUI-133","type":"PAYLOAD","l1":"1 67241U 25311F   26203.77185569 -.00000115  00000-0  20056-4 0  9998","l2":"2 67241  50.0124 348.1881 0000857 101.9082 258.1887 13.29324212 28073"},{"id":"67242","name":"HULIANWANG DIGUI-134","type":"PAYLOAD","l1":"1 67242U 25311G   26203.85535575 -.00000100  00000-0  52156-4 0  9994","l2":"2 67242  50.0052 347.8417 0000884 100.9500 259.1472 13.29324089 28083"},{"id":"67243","name":"HULIANWANG DIGUI-135","type":"PAYLOAD","l1":"1 67243U 25311H   26203.79688804 -.00000114  00000-0  22322-4 0  9999","l2":"2 67243  50.0042 348.1735 0000899  99.7511 260.3463 13.29323819 28076"},{"id":"67244","name":"HULIANWANG DIGUI-136","type":"PAYLOAD","l1":"1 67244U 25311J   26203.76345651 -.00000100  00000-0  51820-4 0  9997","l2":"2 67244  50.0114 348.1244 0000826 102.6347 257.4618 13.29324744 28070"},{"id":"67435","name":"HULIANWANG DIGUI-137","type":"PAYLOAD","l1":"1 67435U 26007A   26203.71575050 -.00000106  00000-0  39461-4 0  9998","l2":"2 67435  50.0099 318.4376 0000872 141.7993 218.2941 13.29327257 25514"},{"id":"67436","name":"HULIANWANG DIGUI-138","type":"PAYLOAD","l1":"1 67436U 26007B   26202.75516424 -.00000094  00000-0  64153-4 0  9994","l2":"2 67436  50.0077 321.9971 0000867 136.4007 223.6934 13.29325618 25388"},{"id":"67437","name":"HULIANWANG DIGUI-139","type":"PAYLOAD","l1":"1 67437U 26007C   26203.72395595 -.00000105  00000-0  40452-4 0  9996","l2":"2 67437  50.0046 318.4020 0000832 129.4604 230.6342 13.29328589 25514"}]}