{"fetched_at":"2026-07-23T07:05:44.990Z","source":"https://celestrak.org/NORAD/elements/gp.php?NAME=HULIANWANG&FORMAT=JSON","constellation":"guowang","records":[{"OBJECT_NAME":"HULIANWANG DIGUI-124","OBJECT_ID":"2025-295F","EPOCH":"2026-07-22T19:48:05.297184","CLASSIFICATION_TYPE":"U","MEAN_MOTION":13.29329586,"ECCENTRICITY":0.00011423,"INCLINATION":49.9986,"RA_OF_ASC_NODE":257.524,"ARG_OF_PERICENTER":221.3324,"MEAN_ANOMALY":138.7462,"EPHEMERIS_TYPE":0,"NORAD_CAT_ID":67064,"ELEMENT_SET_NO":999,"REV_AT_EPOCH":3024,"BSTAR":0.000073384163,"MEAN_MOTION_DOT":-9e-7,"MEAN_MOTION_DDOT":0},{"OBJECT_NAME":"HULIANWANG DIGUI-125","OBJECT_ID":"2025-295G","EPOCH":"2026-07-22T12:22:55.617600","CLASSIFICATION_TYPE":"U","MEAN_MOTION":13.29330211,"ECCENTRICITY":0.00011075,"INCLINATION":49.9978,"RA_OF_ASC_NODE":258.542,"ARG_OF_PERICENTER":218.3147,"MEAN_ANOMALY":141.7647,"EPHEMERIS_TYPE":0,"NORAD_CAT_ID":67065,"ELEMENT_SET_NO":999,"REV_AT_EPOCH":3020,"BSTAR":0.000072729134,"MEAN_MOTION_DOT":-9e-7,"MEAN_MOTION_DDOT":0},{"OBJECT_NAME":"HULIANWANG DIGUI-126","OBJECT_ID":"2025-295H","EPOCH":"2026-07-22T21:12:11.517696","CLASSIFICATION_TYPE":"U","MEAN_MOTION":13.29323154,"ECCENTRICITY":0.00011464,"INCLINATION":49.9981,"RA_OF_ASC_NODE":257.1548,"ARG_OF_PERICENTER":216.1908,"MEAN_ANOMALY":143.8887,"EPHEMERIS_TYPE":0,"NORAD_CAT_ID":67066,"ELEMENT_SET_NO":999,"REV_AT_EPOCH":3025,"BSTAR":0.000067336632,"MEAN_MOTION_DOT":-9.3e-7,"MEAN_MOTION_DDOT":0},{"OBJECT_NAME":"HULIANWANG DIGUI-127","OBJECT_ID":"2025-295J","EPOCH":"2026-07-22T21:00:02.000160","CLASSIFICATION_TYPE":"U","MEAN_MOTION":13.29331418,"ECCENTRICITY":0.00011411,"INCLINATION":49.9999,"RA_OF_ASC_NODE":257.1466,"ARG_OF_PERICENTER":219.7523,"MEAN_ANOMALY":140.3265,"EPHEMERIS_TYPE":0,"NORAD_CAT_ID":67067,"ELEMENT_SET_NO":999,"REV_AT_EPOCH":3025,"BSTAR":0.000073258169,"MEAN_MOTION_DOT":-9e-7,"MEAN_MOTION_DDOT":0},{"OBJECT_NAME":"HULIANWANG DIGUI-128","OBJECT_ID":"2025-311A","EPOCH":"2026-07-21T18:28:02.116416","CLASSIFICATION_TYPE":"U","MEAN_MOTION":13.2932385,"ECCENTRICITY":0.0000909,"INCLINATION":50.0102,"RA_OF_ASC_NODE":351.5303,"ARG_OF_PERICENTER":97.0176,"MEAN_ANOMALY":263.08,"EPHEMERIS_TYPE":0,"NORAD_CAT_ID":67236,"ELEMENT_SET_NO":999,"REV_AT_EPOCH":2794,"BSTAR":0.000028354518,"MEAN_MOTION_DOT":-0.00000111,"MEAN_MOTION_DDOT":0},{"OBJECT_NAME":"HULIANWANG DIGUI-129","OBJECT_ID":"2025-311B","EPOCH":"2026-07-22T19:55:34.271328","CLASSIFICATION_TYPE":"U","MEAN_MOTION":13.29325135,"ECCENTRICITY":0.00008437,"INCLINATION":50.0093,"RA_OF_ASC_NODE":347.7801,"ARG_OF_PERICENTER":101.969,"MEAN_ANOMALY":258.1277,"EPHEMERIS_TYPE":0,"NORAD_CAT_ID":67237,"ELEMENT_SET_NO":999,"REV_AT_EPOCH":2808,"BSTAR":0.000044212776,"MEAN_MOTION_DOT":-0.00000104,"MEAN_MOTION_DDOT":0},{"OBJECT_NAME":"HULIANWANG DIGUI-130","OBJECT_ID":"2025-311C","EPOCH":"2026-07-22T15:43:03.810144","CLASSIFICATION_TYPE":"U","MEAN_MOTION":13.29323896,"ECCENTRICITY":0.00009222,"INCLINATION":50.0076,"RA_OF_ASC_NODE":348.8101,"ARG_OF_PERICENTER":100.2192,"MEAN_ANOMALY":259.8785,"EPHEMERIS_TYPE":0,"NORAD_CAT_ID":67238,"ELEMENT_SET_NO":999,"REV_AT_EPOCH":2805,"BSTAR":0.000042855629,"MEAN_MOTION_DOT":-0.00000104,"MEAN_MOTION_DDOT":0},{"OBJECT_NAME":"HULIANWANG DIGUI-131","OBJECT_ID":"2025-311D","EPOCH":"2026-07-22T15:55:06.716352","CLASSIFICATION_TYPE":"U","MEAN_MOTION":13.29323593,"ECCENTRICITY":0.00009326,"INCLINATION":50.007,"RA_OF_ASC_NODE":348.8453,"ARG_OF_PERICENTER":100.765,"MEAN_ANOMALY":259.3327,"EPHEMERIS_TYPE":0,"NORAD_CAT_ID":67239,"ELEMENT_SET_NO":999,"REV_AT_EPOCH":2805,"BSTAR":0.000017461733,"MEAN_MOTION_DOT":-0.00000116,"MEAN_MOTION_DDOT":0},{"OBJECT_NAME":"HULIANWANG DIGUI-132","OBJECT_ID":"2025-311E","EPOCH":"2026-07-22T18:55:29.340192","CLASSIFICATION_TYPE":"U","MEAN_MOTION":13.29324352,"ECCENTRICITY":0.0000873,"INCLINATION":50.0082,"RA_OF_ASC_NODE":348.1978,"ARG_OF_PERICENTER":99.6244,"MEAN_ANOMALY":260.4726,"EPHEMERIS_TYPE":0,"NORAD_CAT_ID":67240,"ELEMENT_SET_NO":999,"REV_AT_EPOCH":2807,"BSTAR":0.000033140333,"MEAN_MOTION_DOT":-0.00000109,"MEAN_MOTION_DDOT":0},{"OBJECT_NAME":"HULIANWANG DIGUI-133","OBJECT_ID":"2025-311F","EPOCH":"2026-07-22T18:31:28.331616","CLASSIFICATION_TYPE":"U","MEAN_MOTION":13.29324212,"ECCENTRICITY":0.0000857,"INCLINATION":50.0124,"RA_OF_ASC_NODE":348.1881,"ARG_OF_PERICENTER":101.9082,"MEAN_ANOMALY":258.1887,"EPHEMERIS_TYPE":0,"NORAD_CAT_ID":67241,"ELEMENT_SET_NO":999,"REV_AT_EPOCH":2807,"BSTAR":0.000020056193,"MEAN_MOTION_DOT":-0.00000115,"MEAN_MOTION_DDOT":0},{"OBJECT_NAME":"HULIANWANG DIGUI-134","OBJECT_ID":"2025-311G","EPOCH":"2026-07-22T20:31:42.736800","CLASSIFICATION_TYPE":"U","MEAN_MOTION":13.29324089,"ECCENTRICITY":0.00008837,"INCLINATION":50.0052,"RA_OF_ASC_NODE":347.8417,"ARG_OF_PERICENTER":100.95,"MEAN_ANOMALY":259.1472,"EPHEMERIS_TYPE":0,"NORAD_CAT_ID":67242,"ELEMENT_SET_NO":999,"REV_AT_EPOCH":2808,"BSTAR":0.000052156142,"MEAN_MOTION_DOT":-0.000001,"MEAN_MOTION_DDOT":0},{"OBJECT_NAME":"HULIANWANG DIGUI-135","OBJECT_ID":"2025-311H","EPOCH":"2026-07-22T19:07:31.126656","CLASSIFICATION_TYPE":"U","MEAN_MOTION":13.29323819,"ECCENTRICITY":0.00008988,"INCLINATION":50.0042,"RA_OF_ASC_NODE":348.1735,"ARG_OF_PERICENTER":99.7511,"MEAN_ANOMALY":260.3463,"EPHEMERIS_TYPE":0,"NORAD_CAT_ID":67243,"ELEMENT_SET_NO":999,"REV_AT_EPOCH":2807,"BSTAR":0.000022321584,"MEAN_MOTION_DOT":-0.00000114,"MEAN_MOTION_DDOT":0},{"OBJECT_NAME":"HULIANWANG DIGUI-136","OBJECT_ID":"2025-311J","EPOCH":"2026-07-22T18:19:22.642464","CLASSIFICATION_TYPE":"U","MEAN_MOTION":13.29324744,"ECCENTRICITY":0.00008259,"INCLINATION":50.0114,"RA_OF_ASC_NODE":348.1244,"ARG_OF_PERICENTER":102.6347,"MEAN_ANOMALY":257.4618,"EPHEMERIS_TYPE":0,"NORAD_CAT_ID":67244,"ELEMENT_SET_NO":999,"REV_AT_EPOCH":2807,"BSTAR":0.00005182034,"MEAN_MOTION_DOT":-0.000001,"MEAN_MOTION_DDOT":0},{"OBJECT_NAME":"HULIANWANG DIGUI-137","OBJECT_ID":"2026-007A","EPOCH":"2026-07-22T17:10:40.843200","CLASSIFICATION_TYPE":"U","MEAN_MOTION":13.29327257,"ECCENTRICITY":0.00008722,"INCLINATION":50.0099,"RA_OF_ASC_NODE":318.4376,"ARG_OF_PERICENTER":141.7993,"MEAN_ANOMALY":218.2941,"EPHEMERIS_TYPE":0,"NORAD_CAT_ID":67435,"ELEMENT_SET_NO":999,"REV_AT_EPOCH":2551,"BSTAR":0.000039460903,"MEAN_MOTION_DOT":-0.00000106,"MEAN_MOTION_DDOT":0},{"OBJECT_NAME":"HULIANWANG DIGUI-138","OBJECT_ID":"2026-007B","EPOCH":"2026-07-21T18:07:26.190336","CLASSIFICATION_TYPE":"U","MEAN_MOTION":13.29325618,"ECCENTRICITY":0.0000867,"INCLINATION":50.0077,"RA_OF_ASC_NODE":321.9971,"ARG_OF_PERICENTER":136.4007,"MEAN_ANOMALY":223.6934,"EPHEMERIS_TYPE":0,"NORAD_CAT_ID":67436,"ELEMENT_SET_NO":999,"REV_AT_EPOCH":2538,"BSTAR":0.000064152506,"MEAN_MOTION_DOT":-9.4e-7,"MEAN_MOTION_DDOT":0},{"OBJECT_NAME":"HULIANWANG DIGUI-139","OBJECT_ID":"2026-007C","EPOCH":"2026-07-22T17:22:29.794080","CLASSIFICATION_TYPE":"U","MEAN_MOTION":13.29328589,"ECCENTRICITY":0.00008322,"INCLINATION":50.0046,"RA_OF_ASC_NODE":318.402,"ARG_OF_PERICENTER":129.4604,"MEAN_ANOMALY":230.6342,"EPHEMERIS_TYPE":0,"NORAD_CAT_ID":67437,"ELEMENT_SET_NO":999,"REV_AT_EPOCH":2551,"BSTAR":0.000040452428,"MEAN_MOTION_DOT":-0.00000105,"MEAN_MOTION_DDOT":0}]}
